STARLINK-36805          
1 68116U 26044R   26078.25002315 -.01988507  00000+0 -98338-2 0  9991
2 68116  97.2813  38.8628 0001264 102.0296 315.6433 15.84955488  2938
STARLINK-36844          
1 68117U 26044S   26078.25002315 -.01996481  00000+0 -98206-2 0  9996
2 68117  97.2808  38.8641 0001377 101.3793 320.1800 15.85077303  2882
STARLINK-36789          
1 68118U 26044T   26078.25002315 -.02028967  00000+0 -10087-1 0  9993
2 68118  97.2808  38.8664 0001556  98.9772 327.5336 15.84908461  2887
STARLINK-36850          
1 68119U 26044U   26078.25002315 -.02028191  00000+0 -10031-1 0  9992
2 68119  97.2807  38.8680 0001527 109.8384 320.6027 15.85014551  2884
STARLINK-36868          
1 68120U 26044V   26078.25002315 -.02043224  00000+0 -10099-1 0  9992
2 68120  97.2800  38.8699 0001607  93.1734 341.4778 15.85049559  2882
STARLINK-36855          
1 68121U 26044W   26078.25002315 -.02057076  00000+0 -10144-1 0  9994
2 68121  97.2798  38.8718 0001716  97.6485 341.0915 15.85117910  2880
STARLINK-36366          
1 68122U 26044X   26078.25002315 -.02051819  00000+0 -10057-1 0  9997
2 68122  97.2796  38.8732 0001541  88.2622 354.3357 15.85238384  2932
STARLINK-36922          
1 68123U 26044Y   26078.25002315 -.02056223  00000+0 -99843-2 0  9993
2 68123  97.2794  38.8769 0001823  99.3858 351.0940 15.85434304  2930
STARLINK-36938          
1 68124U 26044Z   26078.25002315 -.02052215  00000+0 -99026-2 0  9994
2 68124  97.2794  38.8784 0001689 100.2818 354.0152 15.85558667  2933
STARLINK-36839          
1 68125U 26044AA  26078.25002315 -.02063137  00000+0 -10087-1 0  9999
2 68125  97.2798  38.8754 0001645 100.9947 345.6769 15.85306954  2881
ECHOSTAR 25             
1 68126U 26045A   26074.15172541  .00001699  00000+0  49012-3 0  9998
2 68126  26.8649  68.3559 6668368 178.8166 184.5786  3.07256928   186
ICOR SV                 
1 68127U 26046A   26072.90953491  .00482503  92133-4  10434-2 0  9997
2 68127 123.0797 224.1306 0140888 188.2572 171.6170 15.82606913   290
