CCSDS_OMM_VERS = 2.0
CREATION_DATE  = 
ORIGINATOR     = 

OBJECT_NAME    = STARLINK-36805
OBJECT_ID      = 2026-044R
CENTER_NAME    = EARTH
REF_FRAME      = TEME
TIME_SYSTEM    = UTC
MEAN_ELEMENT_THEORY = SGP/SGP4

EPOCH          = 2026-03-19T06:00:02.000160
MEAN_MOTION    = 15.84955488
ECCENTRICITY   = .00012646
INCLINATION    = 97.2813
RA_OF_ASC_NODE = 38.8628
ARG_OF_PERICENTER = 102.0296
MEAN_ANOMALY   = 315.6433

EPHEMERIS_TYPE = 0
CLASSIFICATION_TYPE = U
NORAD_CAT_ID   = 68116
ELEMENT_SET_NO = 999
REV_AT_EPOCH   = 293
BSTAR          = -.98337988E-2
MEAN_MOTION_DOT = -.1988507E-1
MEAN_MOTION_DDOT = 0

CCSDS_OMM_VERS = 2.0
CREATION_DATE  = 
ORIGINATOR     = 

OBJECT_NAME    = STARLINK-36844
OBJECT_ID      = 2026-044S
CENTER_NAME    = EARTH
REF_FRAME      = TEME
TIME_SYSTEM    = UTC
MEAN_ELEMENT_THEORY = SGP/SGP4

EPOCH          = 2026-03-19T06:00:02.000160
MEAN_MOTION    = 15.85077303
ECCENTRICITY   = .00013778
INCLINATION    = 97.2808
RA_OF_ASC_NODE = 38.8641
ARG_OF_PERICENTER = 101.3793
MEAN_ANOMALY   = 320.1800

EPHEMERIS_TYPE = 0
CLASSIFICATION_TYPE = U
NORAD_CAT_ID   = 68117
ELEMENT_SET_NO = 999
REV_AT_EPOCH   = 288
BSTAR          = -.98206058E-2
MEAN_MOTION_DOT = -.1996481E-1
MEAN_MOTION_DDOT = 0

CCSDS_OMM_VERS = 2.0
CREATION_DATE  = 
ORIGINATOR     = 

OBJECT_NAME    = STARLINK-36789
OBJECT_ID      = 2026-044T
CENTER_NAME    = EARTH
REF_FRAME      = TEME
TIME_SYSTEM    = UTC
MEAN_ELEMENT_THEORY = SGP/SGP4

EPOCH          = 2026-03-19T06:00:02.000160
MEAN_MOTION    = 15.84908461
ECCENTRICITY   = .00015564
INCLINATION    = 97.2808
RA_OF_ASC_NODE = 38.8664
ARG_OF_PERICENTER = 98.9772
MEAN_ANOMALY   = 327.5336

EPHEMERIS_TYPE = 0
CLASSIFICATION_TYPE = U
NORAD_CAT_ID   = 68118
ELEMENT_SET_NO = 999
REV_AT_EPOCH   = 288
BSTAR          = -.10086536E-1
MEAN_MOTION_DOT = -.2028967E-1
MEAN_MOTION_DDOT = 0

CCSDS_OMM_VERS = 2.0
CREATION_DATE  = 
ORIGINATOR     = 

OBJECT_NAME    = STARLINK-36850
OBJECT_ID      = 2026-044U
CENTER_NAME    = EARTH
REF_FRAME      = TEME
TIME_SYSTEM    = UTC
MEAN_ELEMENT_THEORY = SGP/SGP4

EPOCH          = 2026-03-19T06:00:02.000160
MEAN_MOTION    = 15.85014551
ECCENTRICITY   = .00015275
INCLINATION    = 97.2807
RA_OF_ASC_NODE = 38.8680
ARG_OF_PERICENTER = 109.8384
MEAN_ANOMALY   = 320.6027

EPHEMERIS_TYPE = 0
CLASSIFICATION_TYPE = U
NORAD_CAT_ID   = 68119
ELEMENT_SET_NO = 999
REV_AT_EPOCH   = 288
BSTAR          = -.10030685E-1
MEAN_MOTION_DOT = -.2028191E-1
MEAN_MOTION_DDOT = 0

CCSDS_OMM_VERS = 2.0
CREATION_DATE  = 
ORIGINATOR     = 

OBJECT_NAME    = STARLINK-36868
OBJECT_ID      = 2026-044V
CENTER_NAME    = EARTH
REF_FRAME      = TEME
TIME_SYSTEM    = UTC
MEAN_ELEMENT_THEORY = SGP/SGP4

EPOCH          = 2026-03-19T06:00:02.000160
MEAN_MOTION    = 15.85049559
ECCENTRICITY   = .00016075
INCLINATION    = 97.2800
RA_OF_ASC_NODE = 38.8699
ARG_OF_PERICENTER = 93.1734
MEAN_ANOMALY   = 341.4778

EPHEMERIS_TYPE = 0
CLASSIFICATION_TYPE = U
NORAD_CAT_ID   = 68120
ELEMENT_SET_NO = 999
REV_AT_EPOCH   = 288
BSTAR          = -.10099271E-1
MEAN_MOTION_DOT = -.2043224E-1
MEAN_MOTION_DDOT = 0

CCSDS_OMM_VERS = 2.0
CREATION_DATE  = 
ORIGINATOR     = 

OBJECT_NAME    = STARLINK-36855
OBJECT_ID      = 2026-044W
CENTER_NAME    = EARTH
REF_FRAME      = TEME
TIME_SYSTEM    = UTC
MEAN_ELEMENT_THEORY = SGP/SGP4

EPOCH          = 2026-03-19T06:00:02.000160
MEAN_MOTION    = 15.85117910
ECCENTRICITY   = .00017165
INCLINATION    = 97.2798
RA_OF_ASC_NODE = 38.8718
ARG_OF_PERICENTER = 97.6485
MEAN_ANOMALY   = 341.0915

EPHEMERIS_TYPE = 0
CLASSIFICATION_TYPE = U
NORAD_CAT_ID   = 68121
ELEMENT_SET_NO = 999
REV_AT_EPOCH   = 288
BSTAR          = -.10144425E-1
MEAN_MOTION_DOT = -.2057076E-1
MEAN_MOTION_DDOT = 0

CCSDS_OMM_VERS = 2.0
CREATION_DATE  = 
ORIGINATOR     = 

OBJECT_NAME    = STARLINK-36366
OBJECT_ID      = 2026-044X
CENTER_NAME    = EARTH
REF_FRAME      = TEME
TIME_SYSTEM    = UTC
MEAN_ELEMENT_THEORY = SGP/SGP4

EPOCH          = 2026-03-19T06:00:02.000160
MEAN_MOTION    = 15.85238384
ECCENTRICITY   = .00015418
INCLINATION    = 97.2796
RA_OF_ASC_NODE = 38.8732
ARG_OF_PERICENTER = 88.2622
MEAN_ANOMALY   = 354.3357

EPHEMERIS_TYPE = 0
CLASSIFICATION_TYPE = U
NORAD_CAT_ID   = 68122
ELEMENT_SET_NO = 999
REV_AT_EPOCH   = 293
BSTAR          = -.10056643E-1
MEAN_MOTION_DOT = -.2051819E-1
MEAN_MOTION_DDOT = 0

CCSDS_OMM_VERS = 2.0
CREATION_DATE  = 
ORIGINATOR     = 

OBJECT_NAME    = STARLINK-36922
OBJECT_ID      = 2026-044Y
CENTER_NAME    = EARTH
REF_FRAME      = TEME
TIME_SYSTEM    = UTC
MEAN_ELEMENT_THEORY = SGP/SGP4

EPOCH          = 2026-03-19T06:00:02.000160
MEAN_MOTION    = 15.85434304
ECCENTRICITY   = .00018237
INCLINATION    = 97.2794
RA_OF_ASC_NODE = 38.8769
ARG_OF_PERICENTER = 99.3858
MEAN_ANOMALY   = 351.0940

EPHEMERIS_TYPE = 0
CLASSIFICATION_TYPE = U
NORAD_CAT_ID   = 68123
ELEMENT_SET_NO = 999
REV_AT_EPOCH   = 293
BSTAR          = -.99843011E-2
MEAN_MOTION_DOT = -.2056223E-1
MEAN_MOTION_DDOT = 0

CCSDS_OMM_VERS = 2.0
CREATION_DATE  = 
ORIGINATOR     = 

OBJECT_NAME    = STARLINK-36938
OBJECT_ID      = 2026-044Z
CENTER_NAME    = EARTH
REF_FRAME      = TEME
TIME_SYSTEM    = UTC
MEAN_ELEMENT_THEORY = SGP/SGP4

EPOCH          = 2026-03-19T06:00:02.000160
MEAN_MOTION    = 15.85558667
ECCENTRICITY   = .0001689
INCLINATION    = 97.2794
RA_OF_ASC_NODE = 38.8784
ARG_OF_PERICENTER = 100.2818
MEAN_ANOMALY   = 354.0152

EPHEMERIS_TYPE = 0
CLASSIFICATION_TYPE = U
NORAD_CAT_ID   = 68124
ELEMENT_SET_NO = 999
REV_AT_EPOCH   = 293
BSTAR          = -.9902577E-2
MEAN_MOTION_DOT = -.2052215E-1
MEAN_MOTION_DDOT = 0

CCSDS_OMM_VERS = 2.0
CREATION_DATE  = 
ORIGINATOR     = 

OBJECT_NAME    = STARLINK-36839
OBJECT_ID      = 2026-044AA
CENTER_NAME    = EARTH
REF_FRAME      = TEME
TIME_SYSTEM    = UTC
MEAN_ELEMENT_THEORY = SGP/SGP4

EPOCH          = 2026-03-19T06:00:02.000160
MEAN_MOTION    = 15.85306954
ECCENTRICITY   = .00016453
INCLINATION    = 97.2798
RA_OF_ASC_NODE = 38.8754
ARG_OF_PERICENTER = 100.9947
MEAN_ANOMALY   = 345.6769

EPHEMERIS_TYPE = 0
CLASSIFICATION_TYPE = U
NORAD_CAT_ID   = 68125
ELEMENT_SET_NO = 999
REV_AT_EPOCH   = 288
BSTAR          = -.10086785E-1
MEAN_MOTION_DOT = -.2063137E-1
MEAN_MOTION_DDOT = 0

CCSDS_OMM_VERS = 2.0
CREATION_DATE  = 
ORIGINATOR     = 

OBJECT_NAME    = ECHOSTAR 25
OBJECT_ID      = 2026-045A
CENTER_NAME    = EARTH
REF_FRAME      = TEME
TIME_SYSTEM    = UTC
MEAN_ELEMENT_THEORY = SGP/SGP4

EPOCH          = 2026-03-15T03:38:29.075424
MEAN_MOTION    = 3.07256928
ECCENTRICITY   = .66683682
INCLINATION    = 26.8649
RA_OF_ASC_NODE = 68.3559
ARG_OF_PERICENTER = 178.8166
MEAN_ANOMALY   = 184.5786

EPHEMERIS_TYPE = 0
CLASSIFICATION_TYPE = U
NORAD_CAT_ID   = 68126
ELEMENT_SET_NO = 999
REV_AT_EPOCH   = 18
BSTAR          = .49011704E-3
MEAN_MOTION_DOT = .1699E-4
MEAN_MOTION_DDOT = 0

CCSDS_OMM_VERS = 2.0
CREATION_DATE  = 
ORIGINATOR     = 

OBJECT_NAME    = ICOR SV
OBJECT_ID      = 2026-046A
CENTER_NAME    = EARTH
REF_FRAME      = TEME
TIME_SYSTEM    = UTC
MEAN_ELEMENT_THEORY = SGP/SGP4

EPOCH          = 2026-03-13T21:49:43.816224
MEAN_MOTION    = 15.82606913
ECCENTRICITY   = .0140888
INCLINATION    = 123.0797
RA_OF_ASC_NODE = 224.1306
ARG_OF_PERICENTER = 188.2572
MEAN_ANOMALY   = 171.6170

EPHEMERIS_TYPE = 0
CLASSIFICATION_TYPE = U
NORAD_CAT_ID   = 68127
ELEMENT_SET_NO = 999
REV_AT_EPOCH   = 29
BSTAR          = .10434E-2
MEAN_MOTION_DOT = .482503E-2
MEAN_MOTION_DDOT = .92133E-4

